{
  "norad_id": 37258,
  "name": "EUTELSAT KA-SAT 9A",
  "history": [
    {
      "epoch": "2026-05-03T20:09:24.743808Z",
      "apogee_km": 35803.05094965545,
      "perigee_km": 35770.67666203672,
      "latitude_deg": -0.015174139750906743,
      "longitude_deg": 9.035422247809699,
      "height_km": 35773.615937170835,
      "semi_major_axis_km": 42165.00080584609,
      "eccentricity": 0.0003839,
      "inclination_deg": 0.062,
      "raan_deg": 359.8323,
      "arg_perigee_deg": 135.5623,
      "mean_anomaly_deg": 37.7111,
      "mean_motion_rev_day": 1.00270826
    },
    {
      "epoch": "2026-05-04T20:06:48.220704Z",
      "apogee_km": 35803.19057961901,
      "perigee_km": 35770.36097852923,
      "latitude_deg": -0.011382695425244399,
      "longitude_deg": 9.032547820885432,
      "height_km": 35773.38996175435,
      "semi_major_axis_km": 42164.912779074126,
      "eccentricity": 0.0003893,
      "inclination_deg": 0.0623,
      "raan_deg": 2.445,
      "arg_perigee_deg": 133.0405,
      "mean_anomaly_deg": 37.9488,
      "mean_motion_rev_day": 1.0027114
    },
    {
      "epoch": "2026-05-05T20:08:38.810112Z",
      "apogee_km": 35803.41538983484,
      "perigee_km": 35769.953387580754,
      "latitude_deg": -0.008862924973373886,
      "longitude_deg": 9.032087233136343,
      "height_km": 35773.32260526866,
      "semi_major_axis_km": 42164.821388707795,
      "eccentricity": 0.0003968,
      "inclination_deg": 0.0625,
      "raan_deg": 5.003,
      "arg_perigee_deg": 130.4232,
      "mean_anomaly_deg": 39.454,
      "mean_motion_rev_day": 1.00271466
    },
    {
      "epoch": "2026-05-06T14:53:37.775904Z",
      "apogee_km": 35803.538593537996,
      "perigee_km": 35769.031230645145,
      "latitude_deg": 0.06018982496780938,
      "longitude_deg": 8.97802128593053,
      "height_km": 35772.50718876109,
      "semi_major_axis_km": 42164.42191209157,
      "eccentricity": 0.0004092,
      "inclination_deg": 0.0621,
      "raan_deg": 4.8622,
      "arg_perigee_deg": 131.493,
      "mean_anomaly_deg": 320.5452,
      "mean_motion_rev_day": 1.00272891
    },
    {
      "epoch": "2026-05-07T14:50:56.423040Z",
      "apogee_km": 35803.76687150655,
      "perigee_km": 35768.77884420651,
      "latitude_deg": 0.0602289771711346,
      "longitude_deg": 8.980219279488523,
      "height_km": 35772.17869775841,
      "semi_major_axis_km": 42164.40985785653,
      "eccentricity": 0.0004149,
      "inclination_deg": 0.0621,
      "raan_deg": 5.2047,
      "arg_perigee_deg": 130.7994,
      "mean_anomaly_deg": 321.2103,
      "mean_motion_rev_day": 1.00272934
    },
    {
      "epoch": "2026-05-08T14:48:17.676000Z",
      "apogee_km": 35803.83245740453,
      "perigee_km": 35768.87809330827,
      "latitude_deg": 0.05931364149084693,
      "longitude_deg": 8.981800985522902,
      "height_km": 35772.238841806124,
      "semi_major_axis_km": 42164.4922753564,
      "eccentricity": 0.0004145,
      "inclination_deg": 0.0619,
      "raan_deg": 4.2399,
      "arg_perigee_deg": 131.9075,
      "mean_anomaly_deg": 321.3915,
      "mean_motion_rev_day": 1.0027264
    },
    {
      "epoch": "2026-05-09T13:02:50.113248Z",
      "apogee_km": 35803.95274881771,
      "perigee_km": 35769.74851085239,
      "latitude_deg": 0.061490565657510605,
      "longitude_deg": 8.969307402224889,
      "height_km": 35778.53070653012,
      "semi_major_axis_km": 42164.98762983506,
      "eccentricity": 0.0004056,
      "inclination_deg": 0.0617,
      "raan_deg": 3.2537,
      "arg_perigee_deg": 131.5547,
      "mean_anomaly_deg": 297.2793,
      "mean_motion_rev_day": 1.00270873
    },
    {
      "epoch": "2026-05-10T14:43:01.242912Z",
      "apogee_km": 35804.27074559041,
      "perigee_km": 35768.63323497582,
      "latitude_deg": 0.05633200176301928,
      "longitude_deg": 8.982293060758934,
      "height_km": 35771.81757117292,
      "semi_major_axis_km": 42164.58899028312,
      "eccentricity": 0.0004226,
      "inclination_deg": 0.0617,
      "raan_deg": 3.6726,
      "arg_perigee_deg": 131.7847,
      "mean_anomaly_deg": 322.7337,
      "mean_motion_rev_day": 1.00272295
    },
    {
      "epoch": "2026-05-11T06:07:04.855584Z",
      "apogee_km": 35803.9337060465,
      "perigee_km": 35767.63647207691,
      "latitude_deg": -0.015878347257244546,
      "longitude_deg": 8.999384401310719,
      "height_km": 35802.62541736844,
      "semi_major_axis_km": 42163.92208906171,
      "eccentricity": 0.00043043,
      "inclination_deg": 0.0615,
      "raan_deg": 2.7788,
      "arg_perigee_deg": 130.7657,
      "mean_anomaly_deg": 196.2969,
      "mean_motion_rev_day": 1.00274674
    },
    {
      "epoch": "2026-05-12T19:45:43.759296Z",
      "apogee_km": 35804.41368953769,
      "perigee_km": 35768.607470812596,
      "latitude_deg": -0.0137576002122464,
      "longitude_deg": 9.040921029060883,
      "height_km": 35772.43841023792,
      "semi_major_axis_km": 42164.647580175144,
      "eccentricity": 0.0004246,
      "inclination_deg": 0.0618,
      "raan_deg": 2.5546,
      "arg_perigee_deg": 133.0517,
      "mean_anomaly_deg": 40.4424,
      "mean_motion_rev_day": 1.00272086
    },
    {
      "epoch": "2026-05-13T18:00:28.505088Z",
      "apogee_km": 35804.7226036641,
      "perigee_km": 35768.30920941401,
      "latitude_deg": 0.013106477904045998,
      "longitude_deg": 9.02216207651338,
      "height_km": 35768.53790651443,
      "semi_major_axis_km": 42164.65290653906,
      "eccentricity": 0.0004318,
      "inclination_deg": 0.0617,
      "raan_deg": 3.5808,
      "arg_perigee_deg": 131.6616,
      "mean_anomaly_deg": 15.4071,
      "mean_motion_rev_day": 1.00272067
    },
    {
      "epoch": "2026-05-14T05:59:10.042656Z",
      "apogee_km": 35805.144129793924,
      "perigee_km": 35768.36369545084,
      "latitude_deg": -0.012064881812445636,
      "longitude_deg": 8.994896558839459,
      "height_km": 35803.91491212543,
      "semi_major_axis_km": 42164.89091262238,
      "eccentricity": 0.00043615,
      "inclination_deg": 0.0615,
      "raan_deg": 2.2649,
      "arg_perigee_deg": 133.4754,
      "mean_anomaly_deg": 195.0733,
      "mean_motion_rev_day": 1.00271218
    },
    {
      "epoch": "2026-05-15T04:13:50.733696Z",
      "apogee_km": 35805.007678115755,
      "perigee_km": 35768.11103892027,
      "latitude_deg": -0.039810633864059794,
      "longitude_deg": 9.017578851871589,
      "height_km": 35804.14612058948,
      "semi_major_axis_km": 42164.69635851802,
      "eccentricity": 0.00043753,
      "inclination_deg": 0.0618,
      "raan_deg": 3.5684,
      "arg_perigee_deg": 131.5221,
      "mean_anomaly_deg": 170.3074,
      "mean_motion_rev_day": 1.00271912
    }
  ]
}